ONEWEB-0560             
1 55145U 23004F   24288.72515837 -.00000254  00000+0 -67648-3 0  9997
2 55145  87.9056  96.9817 0002016  87.2359 272.9004 13.18684840 89251
ONEWEB-0565             
1 55146U 23004G   24288.71883732  .00000060  00000+0  11914-3 0  9997
2 55146  87.9052  97.0555 0001915  70.4942 289.6397 13.18688019 89249
ONEWEB-0567             
1 55147U 23004H   24288.71251675 -.00000309  00000+0 -81619-3 0  9990
2 55147  87.9051  97.0108 0002032  78.3923 281.7437 13.18686238 89249
ONEWEB-0569             
1 55148U 23004J   24288.67228789 -.00000026  00000+0 -10728-3 0  9995
2 55148  87.8872  81.6550 0002649  79.9119 280.2309 13.13472487 90033
ONEWEB-0570             
1 55149U 23004K   24288.69986459  .00000050  00000+0  94713-4 0  9995
2 55149  87.9055  97.0126 0001251  63.5482 296.5778 13.18688571 89236
ONEWEB-0571             
1 55150U 23004L   24288.76942125  .00000077  00000+0  16192-3 0  9990
2 55150  87.9055  97.0058 0002237  62.6925 297.4434 13.18687922 89259
ONEWEB-0572             
1 55151U 23004M   24288.46098287  .00000149  00000+0  35040-3 0  9992
2 55151  87.9085 127.5300 0001616  74.6713 285.4597 13.17649071 87055
ONEWEB-0573             
1 55152U 23004N   24288.76309855  .00000028  00000+0  37569-4 0  9997
2 55152  87.9049  97.0224 0001957  59.2144 300.9181 13.18687430 89244
